$$SOE
2460154.500000000, A.D. 2023-Jul-29 00:00:00.0000, 3.234259192105585E+08, 4.756640325864025E+08, 9.700459760841504E+07,
2460161.500000000, A.D. 2023-Aug-05 00:00:00.0000, 3.173607921575940E+08, 4.807023400990176E+08, 9.836975504289022E+07,
2460168.500000000, A.D. 2023-Aug-12 00:00:00.0000, 3.112187296272745E+08, 4.856235707701577E+08, 9.971085307672849E+07,
2460175.500000000, A.D. 2023-Aug-19 00:00:00.0000, 3.050016055101996E+08, 4.904271282711381E+08, 1.010276889733196E+08,
2460182.500000000, A.D. 2023-Aug-26 00:00:00.0000, 2.987112813890109E+08, 4.951124313267958E+08, 1.023200640022555E+08,
2460189.500000000, A.D. 2023-Sep-02 00:00:00.0000, 2.923496069946226E+08, 4.996789131212521E+08, 1.035877832822884E+08,
2460196.500000000, A.D. 2023-Sep-09 00:00:00.0000, 2.859184206781721E+08, 5.041260206176097E+08, 1.048306556189653E+08,
2460203.500000000, A.D. 2023-Sep-16 00:00:00.0000, 2.794195500669202E+08, 5.084532137329256E+08, 1.060484933167002E+08,
2460210.500000000, A.D. 2023-Sep-23 00:00:00.0000, 2.728548133205553E+08, 5.126599646547451E+08, 1.072411119505514E+08,
2460217.500000000, A.D. 2023-Sep-30 00:00:00.0000, 2.662260206487095E+08, 5.167457584891490E+08, 1.084083302261358E+08,
2460224.500000000, A.D. 2023-Oct-07 00:00:00.0000, 2.595349737358763E+08, 5.207100946958619E+08, 1.095499700989186E+08,
2460231.500000000, A.D. 2023-Oct-14 00:00:00.0000, 2.527834641128234E+08, 5.245524859962071E+08, 1.106658567866220E+08,
2460238.500000000, A.D. 2023-Oct-21 00:00:00.0000, 2.459732737032791E+08, 5.282724563565205E+08, 1.117558185098031E+08,
2460245.500000000, A.D. 2023-Oct-28 00:00:00.0000, 2.391061761218299E+08, 5.318695403060521E+08, 1.128196862758517E+08,
2460252.500000000, A.D. 2023-Nov-04 00:00:00.0000, 2.321839374724601E+08, 5.353432828177062E+08, 1.138572937579361E+08,
2460259.500000000, A.D. 2023-Nov-11 00:00:00.0000, 2.252083168247232E+08, 5.386932391511806E+08, 1.148684772036832E+08,
2460266.500000000, A.D. 2023-Nov-18 00:00:00.0000, 2.181810665868495E+08, 5.419189745940437E+08, 1.158530753484662E+08,
2460273.500000000, A.D. 2023-Nov-25 00:00:00.0000, 2.111039328487580E+08, 5.450200641231997E+08, 1.168109293287369E+08,
2460280.500000000, A.D. 2023-Dec-02 00:00:00.0000, 2.039786557234570E+08, 5.479960919752725E+08, 1.177418825920806E+08,
2460287.500000000, A.D. 2023-Dec-09 00:00:00.0000, 1.968069697649047E+08, 5.508466510665636E+08, 1.186457807920573E+08,
2460294.500000000, A.D. 2023-Dec-16 00:00:00.0000, 1.895906047499946E+08, 5.535713422747192E+08, 1.195224716424035E+08,
2460301.500000000, A.D. 2023-Dec-23 00:00:00.0000, 1.823312871732780E+08, 5.561697742693269E+08, 1.203718047546949E+08,
2460308.500000000, A.D. 2023-Dec-30 00:00:00.0000, 1.750307411145921E+08, 5.586415649402176E+08, 1.211936316678793E+08,
2460315.500000000, A.D. 2024-Jan-06 00:00:00.0000, 1.676906867069601E+08, 5.609863420616157E+08, 1.219878060387806E+08,
2460322.500000000, A.D. 2024-Jan-13 00:00:00.0000, 1.603128393768338E+08, 5.632037413851430E+08, 1.227541835546893E+08,
2460329.500000000, A.D. 2024-Jan-20 00:00:00.0000, 1.528989110806987E+08, 5.652934052469867E+08, 1.234926217079280E+08,
2460336.500000000, A.D. 2024-Jan-27 00:00:00.0000, 1.454506115099641E+08, 5.672549823411212E+08, 1.242029796714494E+08,
2460343.500000000, A.D. 2024-Feb-03 00:00:00.0000, 1.379696488359196E+08, 5.690881277094227E+08, 1.248851182368506E+08,
2460350.500000000, A.D. 2024-Feb-10 00:00:00.0000, 1.304577302722206E+08, 5.707925026572671E+08, 1.255388997652824E+08,
2460357.500000000, A.D. 2024-Feb-17 00:00:00.0000, 1.229165625937675E+08, 5.723677746023502E+08, 1.261641881389599E+08,
2460364.500000000, A.D. 2024-Feb-24 00:00:00.0000, 1.153478526480982E+08, 5.738136168713555E+08, 1.267608487109863E+08,
2460371.500000000, A.D. 2024-Mar-02 00:00:00.0000, 1.077533078888128E+08, 5.751297084117942E+08, 1.273287482479841E+08,
2460378.500000000, A.D. 2024-Mar-09 00:00:00.0000, 1.001346370699657E+08, 5.763157333560562E+08, 1.278677548475409E+08,
2460385.500000000, A.D. 2024-Mar-16 00:00:00.0000, 9.249355149684556E+07, 5.773713806350079E+08, 1.283777378103035E+08,
2460392.500000000, A.D. 2024-Mar-23 00:00:00.0000, 8.483176672989152E+07, 5.782963447504903E+08, 1.288585675668999E+08,
2460399.500000000, A.D. 2024-Mar-30 00:00:00.0000, 7.715100250124484E+07, 5.790903276797619E+08, 1.293101158629548E+08,
2460406.500000000, A.D. 2024-Apr-06 00:00:00.0000, 6.945298109990385E+07, 5.797530385433804E+08, 1.297322559031867E+08,
2460413.500000000, A.D. 2024-Apr-13 00:00:00.0000, 6.173942777612580E+07, 5.802841918733792E+08, 1.301248621973929E+08,
2460420.500000000, A.D. 2024-Apr-20 00:00:00.0000, 5.401207221344268E+07, 5.806835071593032E+08, 1.304878104146935E+08,
2460427.500000000, A.D. 2024-Apr-27 00:00:00.0000, 4.627264955182999E+07, 5.809507091107430E+08, 1.308209773393021E+08,
2460434.500000000, A.D. 2024-May-04 00:00:00.0000, 3.852290105011119E+07, 5.810855279330142E+08, 1.311242408623023E+08,
2460441.500000000, A.D. 2024-May-11 00:00:00.0000, 3.076457462608665E+07, 5.810876995145844E+08, 1.313974799794170E+08,
2460448.500000000, A.D. 2024-May-18 00:00:00.0000, 2.299942535661264E+07, 5.809569655484859E+08, 1.316405747892561E+08,
2460455.500000000, A.D. 2024-May-25 00:00:00.0000, 1.522921596268267E+07, 5.806930735812702E+08, 1.318534064894755E+08,
2460462.500000000, A.D. 2024-Jun-01 00:00:00.0000, 7.455717339771293E+06, 5.802957769327161E+08, 1.320358573609448E+08,
2460469.500000000, A.D. 2024-Jun-08 00:00:00.0000, -3.192906197747614E+05, 5.797648344638497E+08, 1.321878107157084E+08,
2460476.500000000, A.D. 2024-Jun-15 00:00:00.0000, -8.094017512412439E+06, 5.791000107388623E+08, 1.323091508168930E+08,
2460483.500000000, A.D. 2024-Jun-22 00:00:00.0000, -1.586666122188459E+07, 5.783010777566299E+08, 1.323997629590496E+08,
2460490.500000000, A.D. 2024-Jun-29 00:00:00.0000, -2.363540915156363E+07, 5.773678164308090E+08, 1.324595337546954E+08,
2460497.500000000, A.D. 2024-Jul-06 00:00:00.0000, -3.139843924616614E+07, 5.763000153468078E+08, 1.324883511824553E+08,
2460504.500000000, A.D. 2024-Jul-13 00:00:00.0000, -3.915391885442434E+07, 5.750974696209534E+08, 1.324861044493998E+08,
2460511.500000000, A.D. 2024-Jul-20 00:00:00.0000, -4.690000341808780E+07, 5.737599810122194E+08, 1.324526839441989E+08,
2460518.500000000, A.D. 2024-Jul-27 00:00:00.0000, -5.463483564271516E+07, 5.722873583279841E+08, 1.323879812631140E+08,
2460525.500000000, A.D. 2024-Aug-03 00:00:00.0000, -6.235654487690412E+07, 5.706794177497134E+08, 1.322918892532909E+08,
2460532.500000000, A.D. 2024-Aug-10 00:00:00.0000, -7.006324653376317E+07, 5.689359830750463E+08, 1.321643020578098E+08,
2460539.500000000, A.D. 2024-Aug-17 00:00:00.0000, -7.775304150689378E+07, 5.670568858989704E+08, 1.320051151598512E+08,
2460546.500000000, A.D. 2024-Aug-24 00:00:00.0000, -8.542401555271925E+07, 5.650419657127993E+08, 1.318142254214565E+08,
2460553.500000000, A.D. 2024-Aug-31 00:00:00.0000, -9.307423852330911E+07, 5.628910698604474E+08, 1.315915311010896E+08,
2460560.500000000, A.D. 2024-Sep-07 00:00:00.0000, -1.007017630841123E+08, 5.606040534794134E+08, 1.313369318266731E+08,
2460567.500000000, A.D. 2024-Sep-14 00:00:00.0000, -1.083046228313634E+08, 5.581807804237053E+08, 1.310503285976802E+08,
2460574.500000000, A.D. 2024-Sep-21 00:00:00.0000, -1.158808318376475E+08, 5.556211255828941E+08, 1.307316240361756E+08,
2460581.500000000, A.D. 2024-Sep-28 00:00:00.0000, -1.234283861123754E+08, 5.529249753702220E+08, 1.303807226675210E+08,
2460588.500000000, A.D. 2024-Oct-05 00:00:00.0000, -1.309452633077930E+08, 5.500922263816919E+08, 1.299975308941504E+08,
2460595.500000000, A.D. 2024-Oct-12 00:00:00.0000, -1.384294210316834E+08, 5.471227852081265E+08, 1.295819569394772E+08,
2460602.500000000, A.D. 2024-Oct-19 00:00:00.0000, -1.458787955173408E+08, 5.440165691312568E+08, 1.291339109007457E+08,
2460609.500000000, A.D. 2024-Oct-26 00:00:00.0000, -1.532913006828535E+08, 5.407735069036987E+08, 1.286533048484734E+08,
2460616.500000000, A.D. 2024-Nov-02 00:00:00.0000, -1.606648273222547E+08, 5.373935394657928E+08, 1.281400529370086E+08,
2460623.500000000, A.D. 2024-Nov-09 00:00:00.0000, -1.679972423318816E+08, 5.338766206216131E+08, 1.275940715193762E+08,
2460630.500000000, A.D. 2024-Nov-16 00:00:00.0000, -1.752863879459833E+08, 5.302227176761682E+08, 1.270152792644598E+08,
2460637.500000000, A.D. 2024-Nov-23 00:00:00.0000, -1.825300809346220E+08, 5.264318119857156E+08, 1.264035972685714E+08,
2460644.500000000, A.D. 2024-Nov-30 00:00:00.0000, -1.897261115556197E+08, 5.225038993804049E+08, 1.257589491392938E+08,
2460651.500000000, A.D. 2024-Dec-07 00:00:00.0000, -1.968722418413588E+08, 5.184389908818204E+08, 1.250812610480466E+08,
2460658.500000000, A.D. 2024-Dec-14 00:00:00.0000, -2.039662039094957E+08, 5.142371149418202E+08, 1.243704619152908E+08,
2460665.500000000, A.D. 2024-Dec-21 00:00:00.0000, -2.110057006160673E+08, 5.098983199645873E+08, 1.236264838403700E+08,
2460672.500000000, A.D. 2024-Dec-28 00:00:00.0000, -2.179884065780246E+08, 5.054226741459319E+08, 1.228492623528961E+08,
2460679.500000000, A.D. 2025-Jan-04 00:00:00.0000, -2.249119669688170E+08, 5.008102650073677E+08, 1.220387364422038E+08,
2460686.500000000, A.D. 2025-Jan-11 00:00:00.0000, -2.317739959092903E+08, 4.960612002878100E+08, 1.211948486686083E+08,
2460693.500000000, A.D. 2025-Jan-18 00:00:00.0000, -2.385720753709816E+08, 4.911756092769053E+08, 1.203175453663233E+08,
2460700.500000000, A.D. 2025-Jan-25 00:00:00.0000, -2.453037543485358E+08, 4.861536441176838E+08, 1.194067768776044E+08,
2460707.500000000, A.D. 2025-Feb-01 00:00:00.0000, -2.519665481122242E+08, 4.809954810506698E+08, 1.184624977989960E+08,
2460714.500000000, A.D. 2025-Feb-08 00:00:00.0000, -2.585579374827454E+08, 4.757013216214893E+08, 1.174846672366392E+08,
2460721.500000000, A.D. 2025-Feb-15 00:00:00.0000, -2.650753681001927E+08, 4.702713938342735E+08, 1.164732490670280E+08,
$$EOE